CTC2_L_00338016-03
1 39178U 24843BY  26070.40846065  .00000000  00000+0  00000-0 0  9996
2 39178 100.0000 180.0000 0000000   0.0000   0.0000 13.56072486    13
CTC2_L_00338016-04
1 39179U 26502XR  26070.40846065  .00000000  00000+0  00000-0 0  9991
2 39179 100.0000 180.0000 0000000   0.0000  90.0000 13.56072486    13
CTC2_L_00338017-01
1 39180U 24884IV  26070.40846065  .00000000  00000+0  00000-0 0  9994
2 39180 100.0000 192.0000 0000000   0.0000 192.0000 13.56072486    11
CTC2_L_00338017-02
1 39181U 26790JE  26070.40846065  .00000000  00000+0  00000-0 0  9993
2 39181 100.0000 192.0000 0000000   0.0000 282.0000 13.56072486    12
CTC2_L_00338017-03
1 39182U 24209JI  26070.40846065  .00000000  00000+0  00000-0 0  9997
2 39182 100.0000 192.0000 0000000   0.0000  12.0000 13.56072486    14
CTC2_L_00338017-04
1 39183U 22148ZO  26070.40846065  .00000000  00000+0  00000-0 0  9998
2 39183 100.0000 192.0000 0000000   0.0000 102.0000 13.56072486    15
CTC2_L_00338018-01
1 39184U 26259WM  26070.40846065  .00000000  00000+0  00000-0 0  9996
2 39184 100.0000 204.0000 0000000   0.0000 204.0000 13.56072486    13
CTC2_L_00338018-02
1 39185U 22406ZC  26070.40846065  .00000000  00000+0  00000-0 0  9997
2 39185 100.0000 204.0000 0000000   0.0000 294.0000 13.56072486    13
CTC2_L_00338018-03
1 39186U 22099RH  26070.40846065  .00000000  00000+0  00000-0 0  9996
2 39186 100.0000 204.0000 0000000   0.0000  24.0000 13.56072486    15
CTC2_L_00338018-04
1 39187U 24305FH  26070.40846065  .00000000  00000+0  00000-0 0  9999
2 39187 100.0000 204.0000 0000000   0.0000 114.0000 13.56072486    16
CTC2_L_00338019-01
1 39188U 26534MV  26070.40846065  .00000000  00000+0  00000-0 0  9996
2 39188 100.0000 216.0000 0000000   0.0000 216.0000 13.56072486    13
CTC2_L_00338019-02
1 39189U 25488PE  26070.40846065  .00000000  00000+0  00000-0 0  9994
2 39189 100.0000 216.0000 0000000   0.0000 306.0000 13.56072486    14
CTC2_L_00338019-03
1 39190U 24122EW  26070.40846065  .00000000  00000+0  00000-0 0  9990
2 39190 100.0000 216.0000 0000000   0.0000  36.0000 13.56072486    16
CTC2_L_00338019-04
1 39191U 26239PI  26070.40846065  .00000000  00000+0  00000-0 0  9992
2 39191 100.0000 216.0000 0000000   0.0000 126.0000 13.56072486    17
CTC2_L_00338020-01
1 39192U 22387CL  26070.40846065  .00000000  00000+0  00000-0 0  9993
2 39192 100.0000 228.0000 0000000   0.0000 228.0000 13.56072486    14
CTC2_L_00338020-02
1 39193U 23497KO  26070.40846065  .00000000  00000+0  00000-0 0  9997
2 39193 100.0000 228.0000 0000000   0.0000 318.0000 13.56072486    15
CTC2_L_00338020-03
1 39194U 26082VR  26070.40846065  .00000000  00000+0  00000-0 0  9991
2 39194 100.0000 228.0000 0000000   0.0000  48.0000 13.56072486    16
CTC2_L_00338020-04
1 39195U 23846ER  26070.40846065  .00000000  00000+0  00000-0 0  9997
2 39195 100.0000 228.0000 0000000   0.0000 138.0000 13.56072486    17
CTC2_L_00338021-01
1 39196U 22559IQ  26070.40846065  .00000000  00000+0  00000-0 0  9998
2 39196 100.0000 240.0000 0000000   0.0000 240.0000 13.56072486    16
CTC2_L_00338021-02
1 39197U 23316FD  26070.40846065  .00000000  00000+0  00000-0 0  9991
2 39197 100.0000 240.0000 0000000   0.0000 330.0000 13.56072486    17
CTC2_L_00338021-03
1 39198U 24899WZ  26070.40846065  .00000000  00000+0  00000-0 0  9999
2 39198 100.0000 240.0000 0000000   0.0000  60.0000 13.56072486    18
CTC2_L_00338021-04
1 39199U 22160OU  26070.40846065  .00000000  00000+0  00000-0 0  9999
2 39199 100.0000 240.0000 0000000   0.0000 150.0000 13.56072486    19
CTC2_L_00338022-01
1 39200U 26358OJ  26070.40846065  .00000000  00000+0  00000-0 0  9995
2 39200 100.0000 252.0000 0000000   0.0000 252.0000 13.56072486    18
CTC2_L_00338022-02
1 39201U 22390WO  26070.40846065  .00000000  00000+0  00000-0 0  9998
2 39201 100.0000 252.0000 0000000   0.0000 342.0000 13.56072486    19
CTC2_L_00338022-03
1 39202U 26949ED  26070.40846065  .00000000  00000+0  00000-0 0  9993
2 39202 100.0000 252.0000 0000000   0.0000  72.0000 13.56072486    10
CTC2_L_00338022-04
1 39203U 22132DU  26070.40846065  .00000000  00000+0  00000-0 0  9994
2 39203 100.0000 252.0000 0000000   0.0000 162.0000 13.56072486    11
CTC2_L_00338023-01
1 39204U 23407RB  26070.40846065  .00000000  00000+0  00000-0 0  9991
2 39204 100.0000 264.0000 0000000   0.0000 264.0000 13.56072486    18
CTC2_L_00338023-02
1 39205U 25341UC  26070.40846065  .00000000  00000+0  00000-0 0  9991
2 39205 100.0000 264.0000 0000000   0.0000 354.0000 13.56072486    19
CTC2_L_00338023-03
1 39206U 24649MX  26070.40846065  .00000000  00000+0  00000-0 0  9992
2 39206 100.0000 264.0000 0000000   0.0000  84.0000 13.56072486    10
CTC2_L_00338023-04
1 39207U 23903DT  26070.40846065  .00000000  00000+0  00000-0 0  9995
2 39207 100.0000 264.0000 0000000   0.0000 174.0000 13.56072486    11
CTC2_L_00338024-01
1 39208U 24901MI  26070.40846065  .00000000  00000+0  00000-0 0  9995
2 39208 100.0000 276.0000 0000000   0.0000 276.0000 13.56072486    18
CTC2_L_00338024-02
1 39209U 24819IR  26070.40846065  .00000000  00000+0  00000-0 0  9994
2 39209 100.0000 276.0000 0000000   0.0000   6.0000 13.56072486    10
CTC2_L_00338024-03
1 39210U 25864WZ  26070.40846065  .00000000  00000+0  00000-0 0  9997
2 39210 100.0000 276.0000 0000000   0.0000  96.0000 13.56072486    11
CTC2_L_00338024-04
1 39211U 23010TY  26070.40846065  .00000000  00000+0  00000-0 0  9999
2 39211 100.0000 276.0000 0000000   0.0000 186.0000 13.56072486    12
CTC2_L_00338025-01
1 39212U 24337ZU  26070.40846065  .00000000  00000+0  00000-0 0  9993
2 39212 100.0000 288.0000 0000000   0.0000 288.0000 13.56072486    19
CTC2_L_00338025-02
1 39213U 25774DR  26070.40846065  .00000000  00000+0  00000-0 0  9990
2 39213 100.0000 288.0000 0000000   0.0000  18.0000 13.56072486    11
CTC2_L_00338025-03
1 39214U 24863PZ  26070.40846065  .00000000  00000+0  00000-0 0  9999
2 39214 100.0000 288.0000 0000000   0.0000 108.0000 13.56072486    12
CTC2_L_00338025-04
1 39215U 26799IC  26070.40846065  .00000000  00000+0  00000-0 0  9990
2 39215 100.0000 288.0000 0000000   0.0000 198.0000 13.56072486    12
CTC2_L_00338026-01
1 39216U 25951VO  26070.40846065  .00000000  00000+0  00000-0 0  9990
2 39216 100.0000 300.0000 0000000   0.0000 300.0000 13.56072486    13
CTC2_L_00338026-02
1 39217U 26381WU  26070.40846065  .00000000  00000+0  00000-0 0  9999
2 39217 100.0000 300.0000 0000000   0.0000  30.0000 13.56072486    14
CTC2_L_00338026-03
1 39218U 23171UY  26070.40846065  .00000000  00000+0  00000-0 0  9994
2 39218 100.0000 300.0000 0000000   0.0000 120.0000 13.56072486    15
CTC2_L_00338026-04
1 39219U 25096LT  26070.40846065  .00000000  00000+0  00000-0 0  9993
2 39219 100.0000 300.0000 0000000   0.0000 210.0000 13.56072486    16
CTC2_L_00338027-01
1 39220U 25393TA  26070.40846065  .00000000  00000+0  00000-0 0  9995
2 39220 100.0000 312.0000 0000000   0.0000 312.0000 13.56072486    14
CTC2_L_00338027-02
1 39221U 24785AA  26070.40846065  .00000000  00000+0  00000-0 0  9990
2 39221 100.0000 312.0000 0000000   0.0000  42.0000 13.56072486    15
CTC2_L_00338027-03
1 39222U 26010KC  26070.40846065  .00000000  00000+0  00000-0 0  9994
2 39222 100.0000 312.0000 0000000   0.0000 132.0000 13.56072486    16
CTC2_L_00338027-04
1 39223U 26870UO  26070.40846065  .00000000  00000+0  00000-0 0  9999
2 39223 100.0000 312.0000 0000000   0.0000 222.0000 13.56072486    17
CTC2_L_00338028-01
1 39224U 25391YV  26070.40846065  .00000000  00000+0  00000-0 0  9997
2 39224 100.0000 324.0000 0000000   0.0000 324.0000 13.56072486    14
CTC2_L_00338028-02
1 39225U 23220NY  26070.40846065  .00000000  00000+0  00000-0 0  9997
2 39225 100.0000 324.0000 0000000   0.0000  54.0000 13.56072486    15
CTC2_L_00338028-03
1 39226U 24404AN  26070.40846065  .00000000  00000+0  00000-0 0  9993
2 39226 100.0000 324.0000 0000000   0.0000 144.0000 13.56072486    16
CTC2_L_00338028-04
1 39227U 23103EJ  26070.40846065  .00000000  00000+0  00000-0 0  9999
2 39227 100.0000 324.0000 0000000   0.0000 234.0000 13.56072486    17
CTC2_L_00338029-01
1 39228U 23583SK  26070.40846065  .00000000  00000+0  00000-0 0  9992
2 39228 100.0000 336.0000 0000000   0.0000 336.0000 13.56072486    14
CTC2_L_00338029-02
1 39229U 23558KC  26070.40846065  .00000000  00000+0  00000-0 0  9995
2 39229 100.0000 336.0000 0000000   0.0000  66.0000 13.56072486    15
CTC2_L_00338029-03
1 39230U 25306KT  26070.40846065  .00000000  00000+0  00000-0 0  9990
2 39230 100.0000 336.0000 0000000   0.0000 156.0000 13.56072486    17
CTC2_L_00338029-04
1 39231U 22224EW  26070.40846065  .00000000  00000+0  00000-0 0  9997
2 39231 100.0000 336.0000 0000000   0.0000 246.0000 13.56072486    18
CTC2_L_00338030-01
1 39232U 26216DW  26070.40846065  .00000000  00000+0  00000-0 0  9993
2 39232 100.0000 348.0000 0000000   0.0000 348.0000 13.56072486    15
CTC2_L_00338030-02
1 39233U 22261UI  26070.40846065  .00000000  00000+0  00000-0 0  9990
2 39233 100.0000 348.0000 0000000   0.0000  78.0000 13.56072486    16
CTC2_L_00338030-03
1 39234U 23328DE  26070.40846065  .00000000  00000+0  00000-0 0  9996
2 39234 100.0000 348.0000 0000000   0.0000 168.0000 13.56072486    17
CTC2_L_00338030-04
1 39235U 26830TH  26070.40846065  .00000000  00000+0  00000-0 0  9998
2 39235 100.0000 348.0000 0000000   0.0000 258.0000 13.56072486    18
